H1 CPF 01  gfz 2023 01 01 01  5011 tandemx   
H2 1003001  6202 36605    2023 01 01 00 59 42 2023 01 06 00 00 42   120 1 1  0 0 0
H9
10 0 59945  53262.000000  0    1190812.966   2582551.844  -6281276.492
10 0 59945  53382.000000  0    1796276.045   3138367.858  -5870556.172
10 0 59945  53502.000000  0    2379738.921   3629337.751  -5357271.298
10 0 59945  53622.000000  0    2929834.577   4047368.195  -4750300.551
10 0 59945  53742.000000  0    3435622.577   4385805.708  -4060172.067
10 0 59945  53862.000000  0    3886808.110   4639549.711  -3298890.952
10 0 59945  53982.000000  0    4273955.007   4805136.659  -2479737.703
10 0 59945  54102.000000  0    4588686.234   4880792.160  -1617039.884
10 0 59945  54222.000000  0    4823868.333   4866451.408   -725922.524
10 0 59945  54342.000000  0    4973774.651   4763744.292    177961.507
10 0 59945  54462.000000  0    5034220.117   4575945.793   1078712.624
10 0 59945  54582.000000  0    5002667.320   4307894.575   1960471.005
10 0 59945  54702.000000  0    4878301.389   3965879.728   2807704.986
10 0 59945  54822.000000  0    4662068.083   3557497.107   3605494.111
10 0 59945  54942.000000  0    4356674.939   3091480.756   4339798.249
10 0 59945  55062.000000  0    3966557.683   2577514.077   4997707.492
10 0 59945  55182.000000  0    3497812.200   2026025.717   5567670.946
10 0 59945  55302.000000  0    2958091.396   1447974.501   6039696.753
10 0 59945  55422.000000  0    2356474.636    854628.554   6405521.795
10 0 59945  55542.000000  0    1703310.440    257344.201   6658749.042
10 0 59945  55662.000000  0    1010035.787   -332650.019   6794954.299
10 0 59945  55782.000000  0     288973.850   -904464.317   6811760.313
10 0 59945  55902.000000  0    -446885.865  -1447748.668   6708874.919
10 0 59945  56022.000000  0   -1184121.432  -1952879.943   6488095.177
10 0 59945  56142.000000  0   -1909122.215  -2411132.275   6153276.302
10 0 59945  56262.000000  0   -2608337.676  -2814827.548   5710269.059
10 0 59945  56382.000000  0   -3268531.745  -3157467.040   5166826.232
10 0 59945  56502.000000  0   -3877038.614  -3433839.932   4532472.487
10 0 59945  56622.000000  0   -4422010.145  -3640105.038   3818340.842
10 0 59945  56742.000000  0   -4892651.543  -3773845.285   3036980.381
10 0 59945  56862.000000  0   -5279441.154  -3834094.055   2202137.481
10 0 59945  56982.000000  0   -5574329.716  -3821332.748   1328511.608
10 0 59945  57102.000000  0   -5770911.766  -3737457.467    431490.586
10 0 59945  57222.000000  0   -5864565.756  -3585716.276   -473127.840
10 0 59945  57342.000000  0   -5852559.136  -3370619.041  -1369423.349
10 0 59945  57462.000000  0   -5734114.317  -3097820.856  -2241643.424
10 0 59945  57582.000000  0   -5510433.785  -2773982.784  -3074487.141
10 0 59945  57702.000000  0   -5184686.273  -2406614.947  -3853377.663
10 0 59945  57822.000000  0   -4761954.103  -2003905.262  -4564717.872
10 0 59945  57942.000000  0   -4249144.187  -1574538.992  -5196124.788
10 0 59945  58062.000000  0   -3654864.845  -1127512.860  -5736639.118
10 0 59945  58182.000000  0   -2989271.943   -671947.962  -6176905.774
10 0 59945  58302.000000  0   -2263888.959   -216906.130  -6509324.343
10 0 59945  58422.000000  0   -1491403.779    228786.577  -6728168.683
10 0 59945  58542.000000  0    -685447.071    656705.923  -6829674.136
10 0 59945  58662.000000  0     139643.626   1058984.303  -6812095.048
10 0 59945  58782.000000  0     969071.978   1428451.059  -6675731.196
10 0 59945  58902.000000  0    1787841.767   1758757.034  -6422925.936
10 0 59945  59022.000000  0    2581022.796   2044482.740  -6058030.259
10 0 59945  59142.000000  0    3334019.160   2281226.811  -5587335.340
10 0 59945  59262.000000  0    4032834.677   2465673.919  -5018974.076
10 0 59945  59382.000000  0    4664334.427   2595642.020  -4362793.009
10 0 59945  59502.000000  0    5216496.804   2670107.111  -3630191.978
10 0 59945  59622.000000  0    5678648.871   2689204.565  -2833934.441
10 0 59945  59742.000000  0    6041682.361   2654207.369  -1987932.185
10 0 59945  59862.000000  0    6298244.001   2567480.424  -1107003.154
10 0 59945  59982.000000  0    6442893.083   2432411.454   -206610.121
10 0 59945  60102.000000  0    6472223.708   2253320.097    697416.890
10 0 59945  60222.000000  0    6384944.888   2035346.379   1589165.814
10 0 59945  60342.000000  0    6181921.804   1784324.132   2452930.260
10 0 59945  60462.000000  0    5866172.033   1506639.164   3273496.102
10 0 59945  60582.000000  0    5442817.890   1209077.433   4036416.891
10 0 59945  60702.000000  0    4918995.607    898666.982   4728273.309
10 0 59945  60822.000000  0    4303726.560    582518.539   5336910.006
10 0 59945  60942.000000  0    3607752.590    267667.174   5851649.115
10 0 59945  61062.000000  0    2843337.997    -39080.489   6263473.380
10 0 59945  61182.000000  0    2024046.773   -331288.986   6565177.251
10 0 59945  61302.000000  0    1164498.071   -603025.772   6751487.835
10 0 59945  61422.000000  0     280101.933   -848979.902   6819152.702
10 0 59945  61542.000000  0    -613218.341  -1064564.513   6766991.957
10 0 59945  61662.000000  0   -1499312.205  -1246002.209   6595916.753
10 0 59945  61782.000000  0   -2362092.515  -1390391.225   6308913.323
10 0 59945  61902.000000  0   -3185825.543  -1495751.070   5910994.380
10 0 59945  62022.000000  0   -3955419.735  -1561048.556   5409119.524
10 0 59945  62142.000000  0   -4656707.568  -1586204.232   4812079.580
10 0 59945  62262.000000  0   -5276713.294  -1572077.415   4130347.535
10 0 59945  62382.000000  0   -5803900.845  -1520429.872   3375897.643
10 0 59945  62502.000000  0   -6228396.491  -1433869.057   2561997.138
10 0 59945  62622.000000  0   -6542183.927  -1315773.132   1702973.644
10 0 59945  62742.000000  0   -6739265.990  -1170198.600    813957.923
10 0 59945  62862.000000  0   -6815784.694  -1001772.133    -89390.434
10 0 59945  62982.000000  0   -6770098.791   -815569.821   -991167.548
10 0 59945  63102.000000  0   -6602816.344   -616987.134  -1875514.481
10 0 59945  63222.000000  0   -6316781.748   -411602.949  -2726903.202
10 0 59945  63342.000000  0   -5917020.016   -205042.137  -3530415.197
10 0 59945  63462.000000  0   -5410636.495     -2838.090  -4272006.762
10 0 59945  63582.000000  0   -4806676.756    189700.246  -4938752.821
10 0 59945  63702.000000  0   -4115952.462    367613.723  -5519066.926
10 0 59945  63822.000000  0   -3350836.499    526407.372  -6002894.414
10 0 59945  63942.000000  0   -2525032.716    662151.402  -6381874.848
10 0 59945  64062.000000  0   -1653327.411    771567.817  -6649474.277
10 0 59945  64182.000000  0    -751324.384    852101.214  -6801087.543
10 0 59945  64302.000000  0     164830.476    901972.777  -6834107.450
10 0 59945  64422.000000  0    1078730.002    920216.117  -6747964.668
10 0 59945  64542.000000  0    1973992.779    906695.091  -6544139.232
10 0 59945  64662.000000  0    2834551.087    862103.609  -6226137.806
10 0 59945  64782.000000  0    3644934.695    787947.179  -5799439.218
10 0 59945  64902.000000  0    4390545.786    686505.727  -5271409.093
10 0 59945  65022.000000  0    5057923.026    560778.806  -4651184.640
10 0 59945  65142.000000  0    5634990.564    414414.306  -3949527.758
10 0 59945  65262.000000  0    6111284.978    251620.848  -3178647.616
10 0 59945  65382.000000  0    6478155.986     77066.231  -2351996.042
10 0 59945  65502.000000  0    6728937.367   -104236.559  -1484036.737
10 0 59945  65622.000000  0    6859080.443   -287052.986   -589991.035
10 0 59945  65742.000000  0    6866246.785   -466056.826    314432.620
10 0 59945  65862.000000  0    6750358.547   -635964.073   1213321.129
10 0 59945  65982.000000  0    6513603.037   -791666.925   2090845.134
10 0 59945  66102.000000  0    6160391.851   -928364.222   2931547.708
10 0 59945  66222.000000  0    5697272.978  -1041684.959   3720624.710
10 0 59945  66342.000000  0    5132802.671  -1127801.506   4444190.569
10 0 59945  66462.000000  0    4477378.004  -1183531.087   5089526.225
10 0 59945  66582.000000  0    3743034.903  -1206420.610   5645302.376
10 0 59945  66702.000000  0    2943217.881  -1194814.335   6101775.770
10 0 59945  66822.000000  0    2092525.970  -1147903.932   6450954.835
10 0 59945  66942.000000  0    1206441.434  -1065759.355   6686734.209
10 0 59945  67062.000000  0     301043.811   -949339.706   6804996.246
10 0 59945  67182.000000  0    -607283.353   -800483.685   6803677.280
10 0 59945  67302.000000  0   -1502148.001   -621880.783   6682800.324
10 0 59945  67422.000000  0   -2367443.899   -417022.816   6444474.485
10 0 59945  67542.000000  0   -3187639.285   -190136.704   6092861.059
10 0 59945  67662.000000  0   -3948056.924     53900.470   5634106.559
10 0 59945  67782.000000  0   -4635141.113    309662.703   5076241.520
10 0 59945  67902.000000  0   -5236705.794    571290.739   4429045.606
10 0 59945  68022.000000  0   -5742159.301    832620.347   3703880.553
10 0 59945  68142.000000  0   -6142699.564   1087320.651   2913493.233
10 0 59945  68262.000000  0   -6431477.206   1329039.507   2071792.196
10 0 59945  68382.000000  0   -6603721.595   1551551.994   1193600.242
10 0 59945  68502.000000  0   -6656827.085   1748909.115    294387.555
10 0 59945  68622.000000  0   -6590394.725   1915582.565   -610009.656
10 0 59945  68742.000000  0   -6406228.751   2046600.999  -1503677.092
10 0 59945  68862.000000  0   -6108289.460   2137675.284  -2370910.429
10 0 59945  68982.000000  0   -5702603.188   2185309.922  -3196499.090
10 0 59945  69102.000000  0   -5197130.443   2186896.728  -3965998.031
10 0 59945  69222.000000  0   -4601597.900   2140788.488  -4665980.630
10 0 59945  69342.000000  0   -3927299.634   2046351.950  -5284268.892
10 0 59945  69462.000000  0   -3186873.189   1903999.452  -5810137.086
10 0 59945  69582.000000  0   -2394056.758   1715198.948  -6234487.732
10 0 59945  69702.000000  0   -1563430.251   1482462.209  -6549998.635
99
